0 SL-8 DEB
1 29283U 81120M   13293.75409363  .00000018  00000-0  10000-3 0  3516
2 29283 082.9583 049.5305 0027033 305.1329 054.7546 12.07699426426105
0 SL-8 DEB
1 29283U 81120M   13295.07954532  .00000018  00000-0  10000-3 0  3527
2 29283 082.9972 048.7830 0031236 310.8028 049.0243 12.07698858426266
